{
    "links": {
        "self": "http://www.neowsapp.com/rest/v1/neo/3373976?api_key=iIulBulltgU6a56xZRHN4H3l9WmuAYTsLGpBGhQ2"
    },
    "id": "3373976",
    "neo_reference_id": "3373976",
    "name": "(2007 GX5)",
    "designation": "2007 GX5",
    "nasa_jpl_url": "http://ssd.jpl.nasa.gov/sbdb.cgi?sstr=3373976",
    "absolute_magnitude_h": 24.3,
    "estimated_diameter": {
        "kilometers": {
            "estimated_diameter_min": 0.0366906138,
            "estimated_diameter_max": 0.0820427065
        },
        "meters": {
            "estimated_diameter_min": 36.6906137531,
            "estimated_diameter_max": 82.0427064882
        },
        "miles": {
            "estimated_diameter_min": 0.0227984834,
            "estimated_diameter_max": 0.0509789586
        },
        "feet": {
            "estimated_diameter_min": 120.3760332259,
            "estimated_diameter_max": 269.1689931548
        }
    },
    "is_potentially_hazardous_asteroid": false,
    "close_approach_data": [
        {
            "close_approach_date": "2007-04-09",
            "close_approach_date_full": "2007-Apr-09 08:54",
            "epoch_date_close_approach": 1176108840000,
            "relative_velocity": {
                "kilometers_per_second": "15.6257496181",
                "kilometers_per_hour": "56252.6986250088",
                "miles_per_hour": "34953.2393206339"
            },
            "miss_distance": {
                "astronomical": "0.0214723136",
                "lunar": "8.3527299904",
                "kilometers": "3212212.378532032",
                "miles": "1995976.2173727616"
            },
            "orbiting_body": "Earth"
        }
    ],
    "orbital_data": {
        "orbit_id": "9",
        "orbit_determination_date": "2017-04-06 09:06:34",
        "first_observation_date": "2007-04-15",
        "last_observation_date": "2007-04-24",
        "data_arc_in_days": 9,
        "observations_used": 52,
        "orbit_uncertainty": "8",
        "minimum_orbit_intersection": ".0133258",
        "jupiter_tisserand_invariant": "4.198",
        "epoch_osculation": "2454208.5",
        "eccentricity": ".5585459793062134",
        "semi_major_axis": "1.584948045185106",
        "inclination": "1.242228944538228",
        "ascending_node_longitude": "75.5522211800449",
        "orbital_period": "728.8211593304163",
        "perihelion_distance": ".6996816871377223",
        "perihelion_argument": "41.86011436858304",
        "aphelion_distance": "2.470214403232489",
        "perihelion_time": "2454149.738623687945",
        "mean_anomaly": "29.02508413967361",
        "mean_motion": ".4939483375190969",
        "equinox": "J2000",
        "orbit_class": {
            "orbit_class_type": "APO",
            "orbit_class_description": "Near-Earth asteroid orbits which cross the Earth’s orbit similar to that of 1862 Apollo",
            "orbit_class_range": "a (semi-major axis) > 1.0 AU; q (perihelion) < 1.017 AU"
        }
    },
    "is_sentry_object": false
}